start=new Date('2022-10-06T00:00:00.000Z').valueOf();
sats=[{"GP_ID":"214274206","TLE_LINE1":"1 48469U 21040AT  22278.75012602 -.00000383  00000-0 -68384-5 0  9992","LAUNCH_DATE":"2021-05-09","REF_FRAME":"TEME","BSTAR":"-0.00000683840000","REV_AT_EPOCH":"7795","APOAPSIS":"548.062","CENTER_NAME":"EARTH","NORAD_CAT_ID":"48469","DECAY_DATE":null,"RCS_SIZE":"LARGE","COUNTRY_CODE":"US","OBJECT_NAME":"STARLINK-2661","PERIAPSIS":"546.388","RA_OF_ASC_NODE":"47.2961","EPHEMERIS_TYPE":"0","ARG_OF_PERICENTER":"94.1226","SEMIMAJOR_AXIS":"6925.360","EPOCH":"2022-10-05T18:00:10.888128","ECCENTRICITY":"0.00012090","CLASSIFICATION_TYPE":"U","MEAN_ANOMALY":"265.9901","ELEMENT_SET_NO":"999","PERIOD":"95.592","OBJECT_ID":"2021-040AT","OBJECT_TYPE":"PAYLOAD","MEAN_MOTION_DOT":"-0.00000383","TIME_SYSTEM":"UTC","FILE":"3593077","TLE_LINE2":"2 48469  53.0515  47.2961 0001209  94.1226 265.9901 15.06396333 77956","SITE":"AFETR","INCLINATION":"53.0515","MEAN_MOTION":"15.06396333","MEAN_ELEMENT_THEORY":"SGP4","MEAN_MOTION_DDOT":"0.0000000000000"},{"ARG_OF_PERICENTER":"62.1695","EPHEMERIS_TYPE":"0","RA_OF_ASC_NODE":"48.5113","OBJECT_NAME":"STARLINK-2675","PERIAPSIS":"546.155","DECAY_DATE":null,"RCS_SIZE":"LARGE","COUNTRY_CODE":"US","CENTER_NAME":"EARTH","NORAD_CAT_ID":"48470","APOAPSIS":"548.290","BSTAR":"-0.00003199300000","REV_AT_EPOCH":"7790","REF_FRAME":"TEME","LAUNCH_DATE":"2021-05-09","GP_ID":"214241507","TLE_LINE1":"1 48470U 21040AU  22278.48010799 -.00000758  00000-0 -31993-4 0  9990","MEAN_MOTION_DDOT":"0.0000000000000","INCLINATION":"53.0555","MEAN_MOTION":"15.06397118","MEAN_ELEMENT_THEORY":"SGP4","SITE":"AFETR","TIME_SYSTEM":"UTC","MEAN_MOTION_DOT":"-0.00000758","OBJECT_TYPE":"PAYLOAD","FILE":"3592692","TLE_LINE2":"2 48470  53.0555  48.5113 0001541  62.1695 297.9450 15.06397118 77900","OBJECT_ID":"2021-040AU","ELEMENT_SET_NO":"999","PERIOD":"95.592","ECCENTRICITY":"0.00015410","EPOCH":"2022-10-05T11:31:21.330336","MEAN_ANOMALY":"297.9450","CLASSIFICATION_TYPE":"U","SEMIMAJOR_AXIS":"6925.357"},{"OBJECT_ID":"2021-040AV","PERIOD":"95.592","ELEMENT_SET_NO":"999","MEAN_ANOMALY":"272.9093","CLASSIFICATION_TYPE":"U","ECCENTRICITY":"0.00015270","EPOCH":"2022-10-05T17:44:16.090368","SEMIMAJOR_AXIS":"6925.344","MEAN_MOTION_DDOT":"0.0000000000000","MEAN_ELEMENT_THEORY":"SGP4","MEAN_MOTION":"15.06401360","INCLINATION":"53.0549","SITE":"AFETR","FILE":"3593077","TLE_LINE2":"2 48471  53.0549  47.3459 0001527  87.2071 272.9093 15.06401360 77949","TIME_SYSTEM":"UTC","MEAN_MOTION_DOT":"-0.00003421","OBJECT_TYPE":"PAYLOAD","NORAD_CAT_ID":"48471","CENTER_NAME":"EARTH","APOAPSIS":"548.267","BSTAR":"-0.00021083000000","REV_AT_EPOCH":"7794","LAUNCH_DATE":"2021-05-09","REF_FRAME":"TEME","TLE_LINE1":"1 48471U 21040AV  22278.73907512 -.00003421  00000-0 -21083-3 0  9995","GP_ID":"214275207","EPHEMERIS_TYPE":"0","ARG_OF_PERICENTER":"87.2071","RA_OF_ASC_NODE":"47.3459","PERIAPSIS":"546.152","OBJECT_NAME":"STARLINK-2684","COUNTRY_CODE":"US","RCS_SIZE":"LARGE","DECAY_DATE":null},{"MEAN_MOTION_DDOT":"0.0000000000000","MEAN_ELEMENT_THEORY":"SGP4","MEAN_MOTION":"15.06396786","INCLINATION":"53.0553","SITE":"AFETR","FILE":"3593077","TLE_LINE2":"2 48472  53.0553  47.1473 0001587  68.7624 291.3535 15.06396786 77944","TIME_SYSTEM":"UTC","MEAN_MOTION_DOT":"-0.00001664","OBJECT_TYPE":"PAYLOAD","OBJECT_ID":"2021-040AW","PERIOD":"95.592","ELEMENT_SET_NO":"999","MEAN_ANOMALY":"291.3535","CLASSIFICATION_TYPE":"U","ECCENTRICITY":"0.00015870","EPOCH":"2022-10-05T18:53:15.534240","SEMIMAJOR_AXIS":"6925.358","EPHEMERIS_TYPE":"0","ARG_OF_PERICENTER":"68.7624","RA_OF_ASC_NODE":"47.1473","PERIAPSIS":"546.124","OBJECT_NAME":"STARLINK-2722","COUNTRY_CODE":"US","RCS_SIZE":"LARGE","DECAY_DATE":null,"NORAD_CAT_ID":"48472","CENTER_NAME":"EARTH","APOAPSIS":"548.322","BSTAR":"-0.00009284000000","REV_AT_EPOCH":"7794","REF_FRAME":"TEME","LAUNCH_DATE":"2021-05-09","TLE_LINE1":"1 48472U 21040AW  22278.78698535 -.00001664  00000-0 -92840-4 0  9990","GP_ID":"214275453"},{"ARG_OF_PERICENTER":"63.1734","EPHEMERIS_TYPE":"0","RA_OF_ASC_NODE":"49.0431","OBJECT_NAME":"STARLINK-2658","PERIAPSIS":"546.191","DECAY_DATE":null,"RCS_SIZE":"LARGE","COUNTRY_CODE":"US","CENTER_NAME":"EARTH","NORAD_CAT_ID":"48473","APOAPSIS":"548.260","BSTAR":"-0.00012240000000","REV_AT_EPOCH":"7788","REF_FRAME":"TEME","LAUNCH_DATE":"2021-05-09","GP_ID":"214241257","TLE_LINE1":"1 48473U 21040AX  22278.35941482 -.00002104  00000-0 -12240-3 0  9991","MEAN_MOTION_DDOT":"0.0000000000000","MEAN_MOTION":"15.06396047","INCLINATION":"53.0541","MEAN_ELEMENT_THEORY":"SGP4","SITE":"AFETR","TIME_SYSTEM":"UTC","MEAN_MOTION_DOT":"-0.00002104","OBJECT_TYPE":"PAYLOAD","TLE_LINE2":"2 48473  53.0541  49.0431 0001494  63.1734 296.9407 15.06396047 77887","FILE":"3592692","OBJECT_ID":"2021-040AX","ELEMENT_SET_NO":"999","PERIOD":"95.592","ECCENTRICITY":"0.00014940","EPOCH":"2022-10-05T08:37:33.440448","MEAN_ANOMALY":"296.9407","CLASSIFICATION_TYPE":"U","SEMIMAJOR_AXIS":"6925.361"},{"BSTAR":"0.00077220000000","REV_AT_EPOCH":"7792","REF_FRAME":"TEME","LAUNCH_DATE":"2021-05-09","GP_ID":"214273957","TLE_LINE1":"1 48474U 21040AY  22278.65797027  .00011246  00000-0  77220-3 0  9993","NORAD_CAT_ID":"48474","CENTER_NAME":"EARTH","APOAPSIS":"547.911","PERIAPSIS":"546.372","OBJECT_NAME":"STARLINK-2697","COUNTRY_CODE":"US","DECAY_DATE":null,"RCS_SIZE":"LARGE","ARG_OF_PERICENTER":"52.7559","EPHEMERIS_TYPE":"0","RA_OF_ASC_NODE":"47.7249","MEAN_ANOMALY":"307.3531","CLASSIFICATION_TYPE":"U","ECCENTRICITY":"0.00011110","EPOCH":"2022-10-05T15:47:28.631328","SEMIMAJOR_AXIS":"6925.276","OBJECT_ID":"2021-040AY","PERIOD":"95.591","ELEMENT_SET_NO":"999","SITE":"AFETR","TLE_LINE2":"2 48474  53.0540  47.7249 0001111  52.7559 307.3531 15.06423606 77926","FILE":"3593077","TIME_SYSTEM":"UTC","MEAN_MOTION_DOT":"0.00011246","OBJECT_TYPE":"PAYLOAD","MEAN_MOTION_DDOT":"0.0000000000000","MEAN_ELEMENT_THEORY":"SGP4","MEAN_MOTION":"15.06423606","INCLINATION":"53.0540"},{"PERIOD":"95.592","ELEMENT_SET_NO":"999","OBJECT_ID":"2021-040AZ","SEMIMAJOR_AXIS":"6925.365","ECCENTRICITY":"0.00016880","EPOCH":"2022-10-05T16:40:34.188960","MEAN_ANOMALY":"296.1058","CLASSIFICATION_TYPE":"U","INCLINATION":"53.0553","MEAN_MOTION":"15.06394562","MEAN_ELEMENT_THEORY":"SGP4","MEAN_MOTION_DDOT":"0.0000000000000","TIME_SYSTEM":"UTC","OBJECT_TYPE":"PAYLOAD","MEAN_MOTION_DOT":"-0.00002313","TLE_LINE2":"2 48475  53.0553  47.5659 0001688  64.0105 296.1058 15.06394562 77934","FILE":"3593077","SITE":"AFETR","APOAPSIS":"548.399","CENTER_NAME":"EARTH","NORAD_CAT_ID":"48475","GP_ID":"214274708","TLE_LINE1":"1 48475U 21040AZ  22278.69484015 -.00002313  00000-0 -13643-3 0  9994","BSTAR":"-0.00013643000000","REV_AT_EPOCH":"7793","REF_FRAME":"TEME","LAUNCH_DATE":"2021-05-09","ARG_OF_PERICENTER":"64.0105","EPHEMERIS_TYPE":"0","RA_OF_ASC_NODE":"47.5659","RCS_SIZE":"LARGE","DECAY_DATE":null,"COUNTRY_CODE":"US","OBJECT_NAME":"STARLINK-2619","PERIAPSIS":"546.061"},{"SITE":"AFETR","FILE":"3593077","TLE_LINE2":"2 48476  53.0558  47.7505 0001432  60.4986 299.6145 15.06394914 77921","MEAN_MOTION_DOT":"-0.00001157","OBJECT_TYPE":"PAYLOAD","TIME_SYSTEM":"UTC","MEAN_MOTION_DDOT":"0.0000000000000","MEAN_ELEMENT_THEORY":"SGP4","MEAN_MOTION":"15.06394914","INCLINATION":"53.0558","CLASSIFICATION_TYPE":"U","MEAN_ANOMALY":"299.6145","EPOCH":"2022-10-05T15:36:52.809408","ECCENTRICITY":"0.00014320","SEMIMAJOR_AXIS":"6925.364","OBJECT_ID":"2021-040BA","PERIOD":"95.592","ELEMENT_SET_NO":"999","PERIAPSIS":"546.237","OBJECT_NAME":"STARLINK-2723","COUNTRY_CODE":"US","RCS_SIZE":"LARGE","DECAY_DATE":null,"RA_OF_ASC_NODE":"47.7505","EPHEMERIS_TYPE":"0","ARG_OF_PERICENTER":"60.4986","LAUNCH_DATE":"2021-05-09","REF_FRAME":"TEME","REV_AT_EPOCH":"7792","BSTAR":"-0.00005881700000","TLE_LINE1":"1 48476U 21040BA  22278.65061122 -.00001157  00000-0 -58817-4 0  9999","GP_ID":"214274954","NORAD_CAT_ID":"48476","CENTER_NAME":"EARTH","APOAPSIS":"548.221"},{"APOAPSIS":"548.519","CENTER_NAME":"EARTH","NORAD_CAT_ID":"48478","GP_ID":"214274207","TLE_LINE1":"1 48478U 02032DG  22278.63586201 -.00000884  00000-0 -40441-4 0  9999","REF_FRAME":"TEME","LAUNCH_DATE":"2021-05-09","BSTAR":"-0.00004044100000","REV_AT_EPOCH":"7792","RA_OF_ASC_NODE":"47.8236","ARG_OF_PERICENTER":"48.7602","EPHEMERIS_TYPE":"0","DECAY_DATE":null,"RCS_SIZE":"LARGE","COUNTRY_CODE":"US","OBJECT_NAME":"STARLINK-2728","PERIAPSIS":"545.932","PERIOD":"95.592","ELEMENT_SET_NO":"999","OBJECT_ID":"2021-040BC","SEMIMAJOR_AXIS":"6925.361","EPOCH":"2022-10-05T15:15:38.477664","ECCENTRICITY":"0.00018680","CLASSIFICATION_TYPE":"U","MEAN_ANOMALY":"311.3548","MEAN_MOTION":"15.06396042","INCLINATION":"53.0544","MEAN_ELEMENT_THEORY":"SGP4","MEAN_MOTION_DDOT":"0.0000000000000","MEAN_MOTION_DOT":"-0.00000884","OBJECT_TYPE":"PAYLOAD","TIME_SYSTEM":"UTC","FILE":"3593077","TLE_LINE2":"2 48478  53.0544  47.8236 0001868  48.7602 311.3548 15.06396042 77920","SITE":"AFETR"},{"SEMIMAJOR_AXIS":"6925.332","ECCENTRICITY":"0.00016700","EPOCH":"2022-10-05T15:10:19.968384","MEAN_ANOMALY":"267.9799","CLASSIFICATION_TYPE":"U","ELEMENT_SET_NO":"999","PERIOD":"95.592","OBJECT_ID":"2021-040BD","TIME_SYSTEM":"UTC","MEAN_MOTION_DOT":"-0.00000418","OBJECT_TYPE":"PAYLOAD","FILE":"3593077","TLE_LINE2":"2 48479  53.0555  47.8447 0001670  92.1381 267.9799 15.06405511 77921","SITE":"AFETR","MEAN_MOTION":"15.06405511","INCLINATION":"53.0555","MEAN_ELEMENT_THEORY":"SGP4","MEAN_MOTION_DDOT":"0.0000000000000","GP_ID":"214274457","TLE_LINE1":"1 48479U 21040BD  22278.63217556 -.00000418  00000-0 -91479-5 0  9995","BSTAR":"-0.00000914790000","REV_AT_EPOCH":"7792","LAUNCH_DATE":"2021-05-09","REF_FRAME":"TEME","APOAPSIS":"548.353","CENTER_NAME":"EARTH","NORAD_CAT_ID":"48479","DECAY_DATE":null,"RCS_SIZE":"LARGE","COUNTRY_CODE":"US","OBJECT_NAME":"STARLINK-2755","PERIAPSIS":"546.040","EPHEMERIS_TYPE":"0","ARG_OF_PERICENTER":"92.1381","RA_OF_ASC_NODE":"47.8447"}];
